2023-104A               
1 57424U 23104A   26065.78279804  .00015492  00000+0  48200-3 0  9993
2 57424  97.2792 135.5625 0009333 122.1915 238.0234 15.33350758146346
STARLINK-32169          
1 60589U 24150G   26068.86843275  .00000414  00000+0  26105-4 0  9991
2 60589  53.1609 306.5604 0001064  74.7722 285.3397 15.30178264 88064
